STARLINK-37232          
1 69515U 26133H   26187.75003471 -.00003744  00000+0 -59295-4 0  9995
2 69515  53.1597 224.9621 0001101  86.7863  96.0622 15.49308394  5012
STARLINK-37323          
1 69516U 26133J   26187.75003471 -.02527299  00000+0 -35314-1 0  9997
2 69516  53.1599 224.1843 0001346  77.6976 128.8118 15.60018751  5010
STARLINK-37357          
1 69517U 26133K   26187.75003471  .00001192  00000+0  29463-4 0  9994
2 69517  53.1594 225.2334 0001116  80.4962 327.9782 15.49324278  5015
STARLINK-37408          
1 69518U 26133L   26187.75003471  .00023051  00000+0  42242-3 0  9992
2 69518  53.1595 224.4955 0001183  41.7208  11.5769 15.49232201  5019
STARLINK-37570          
1 69519U 26133M   26187.75003471 -.00007616  00000+0 -12898-3 0  9998
2 69519  53.1595 224.9888 0000961  79.8309  88.1543 15.49316552  5019
STARLINK-37510          
1 69520U 26133N   26187.75003471 -.00007763  00000+0 -13157-3 0  9992
2 69520  53.1597 224.9379 0000541 101.9995  91.9146 15.49329145  5013
STARLINK-37586          
1 69521U 26133P   26187.75003471 -.02456475  00000+0 -36017-1 0  9991
2 69521  53.1606 224.0451 0001183  73.5275 199.5877 15.58655325  5013
STARLINK-37379          
1 69522U 26133Q   26187.75003471 -.00004415  00000+0 -71296-4 0  9994
2 69522  53.1600 224.6275 0001849  67.3488 278.5129 15.49333142  5067
STARLINK-37429          
1 69523U 26133R   26187.75003471 -.00003576  00000+0 -56196-4 0  9994
2 69523  53.1594 225.0498 0001417  57.5532  79.4919 15.49338157  5060
STARLINK-37352          
1 69524U 26133S   26187.75003471 -.00005126  00000+0 -84153-4 0  9992
2 69524  53.1599 224.6102 0001175  74.2762 279.4453 15.49310413  5065
STARLINK-37490          
1 69525U 26133T   26187.75003471 -.03107377  00000+0 -57975-1 0  9996
2 69525  53.1603 224.1470 0001183  75.0685 146.3067 15.51835419  5061
STARLINK-37438          
1 69526U 26133U   26187.75003471 -.00008275  00000+0 -14087-3 0  9990
2 69526  53.1600 224.7675 0001139  55.1582 220.2409 15.49310374  5065
STARLINK-37484          
1 69527U 26133V   26187.75003471 -.02540213  00000+0 -43779-1 0  9994
2 69527  53.1602 224.0634 0001545  77.9339 184.4382 15.53861911  5063
STARLINK-37523          
1 69528U 26133W   26187.75003471 -.00003175  00000+0 -49029-4 0  9991
2 69528  53.1598 224.5766 0001269  74.0120 295.0835 15.49319617  5066
STARLINK-37369          
1 69529U 26133X   26187.75003471 -.00000289  00000+0  28570-5 0  9993
2 69529  53.1596 224.5354 0000860  84.2651 304.5211 15.49285394  5064
STARLINK-37670          
1 69530U 26133Y   26187.75003471 -.00008132  00000+0 -13830-3 0  9992
2 69530  53.1601 224.7031 0000834  76.1347 229.0825 15.49310782  5062
STARLINK-37897          
1 69531U 26133Z   26187.75003471 -.02199209  00000+0 -40111-1 0  9991
2 69531  53.1608 224.0341 0001502  74.2187 200.1302 15.52379600  5014
STARLINK-37933          
1 69532U 26133AA  26187.75003471 -.02751219  00000+0 -61436-1 0  9990
2 69532  53.1594 224.3713 0001369  94.6353  13.5101 15.46950514  5012
STARLINK-37890          
1 69533U 26133AB  26187.75003471 -.02533427  00000+0 -57894-1 0  9993
2 69533  53.1595 224.2227 0001434  62.5201 117.6782 15.45956627  5013
STARLINK-37407          
1 69534U 26133AC  26187.75003471 -.02392304  00000+0 -51302-1 0  9999
2 69534  53.1601 224.0852 0001576  70.4252 176.7995 15.47568405  5067
STARLINK-37888          
1 69535U 26133AD  26187.75003471 -.02472527  00000+0 -58364-1 0  9991
2 69535  53.1597 224.1165 0001232  62.4982 168.4821 15.44929748  5019
STARLINK-37889          
1 69536U 26133AE  26187.75003471 -.00005352  00000+0 -88155-4 0  9992
2 69536  53.1595 225.0106 0001052  80.1037  78.1802 15.49333389  5012
2026-134A               
1 69538U 26134A   26187.81259538  .00004819  00000+0  30475-3 0  9995
2 69538  97.6998 257.9931 0015435 199.9402 160.1225 15.09407883  3273
2026-134B               
1 69539U 26134B   26187.67777891  .00004896  00000+0  30822-3 0  9998
2 69539  97.6976 257.8564 0015501 202.8937 157.1602 15.09564057  3241
2026-134C               
1 69540U 26134C   26187.80989888  .00004775  00000+0  30051-3 0  9996
2 69540  97.6981 257.9915 0014932 203.5072 156.5476 15.09597373  3266
2026-134D               
1 69541U 26134D   26187.67651271  .00004849  00000+0  30450-3 0  9999
2 69541  97.7021 257.8700 0015980 203.7151 156.3343 15.09653980  3244
2026-134E               
1 69542U 26134E   26187.80876207  .00004713  00000+0  29591-3 0  9997
2 69542  97.7039 258.0086 0015723 203.9002 156.1499 15.09676862  3262
2026-134F               
1 69543U 26134F   26187.80810537  .00004617  00000+0  28973-3 0  9998
2 69543  97.6991 257.9966 0014970 205.5012 154.5479 15.09722543  3264
2026-134G               
1 69544U 26134G   26187.67435244  .00005218  00000+0  32603-3 0  9995
2 69544  97.7038 257.8770 0015453 206.8851 153.1578 15.09807339  3242
