OBJECT_NAME,OBJECT_ID,EPOCH,MEAN_MOTION,ECCENTRICITY,INCLINATION,RA_OF_ASC_NODE,ARG_OF_PERICENTER,MEAN_ANOMALY,EPHEMERIS_TYPE,CLASSIFICATION_TYPE,NORAD_CAT_ID,ELEMENT_SET_NO,REV_AT_EPOCH,BSTAR,MEAN_MOTION_DOT,MEAN_MOTION_DDOT
STARLINK-37232,2026-133H,2026-07-06T18:00:02.998944,15.49308394,.0001101,53.1597,224.9621,86.7863,96.0622,0,U,69515,999,501,-.59295E-4,-.3744E-4,0
STARLINK-37323,2026-133J,2026-07-06T18:00:02.998944,15.60018751,.0001346,53.1599,224.1843,77.6976,128.8118,0,U,69516,999,501,-.35314E-1,-.2527299E-1,0
STARLINK-37357,2026-133K,2026-07-06T18:00:02.998944,15.49324278,.0001116,53.1594,225.2334,80.4962,327.9782,0,U,69517,999,501,.29463E-4,.1192E-4,0
STARLINK-37408,2026-133L,2026-07-06T18:00:02.998944,15.49232201,.0001183,53.1595,224.4955,41.7208,11.5769,0,U,69518,999,501,.42242E-3,.23051E-3,0
STARLINK-37570,2026-133M,2026-07-06T18:00:02.998944,15.49316552,.0000961,53.1595,224.9888,79.8309,88.1543,0,U,69519,999,501,-.12898E-3,-.7616E-4,0
STARLINK-37510,2026-133N,2026-07-06T18:00:02.998944,15.49329145,.0000541,53.1597,224.9379,101.9995,91.9146,0,U,69520,999,501,-.13157E-3,-.7763E-4,0
STARLINK-37586,2026-133P,2026-07-06T18:00:02.998944,15.58655325,.0001183,53.1606,224.0451,73.5275,199.5877,0,U,69521,999,501,-.36017E-1,-.2456475E-1,0
STARLINK-37379,2026-133Q,2026-07-06T18:00:02.998944,15.49333142,.0001849,53.1600,224.6275,67.3488,278.5129,0,U,69522,999,506,-.71296E-4,-.4415E-4,0
STARLINK-37429,2026-133R,2026-07-06T18:00:02.998944,15.49338157,.0001417,53.1594,225.0498,57.5532,79.4919,0,U,69523,999,506,-.56196E-4,-.3576E-4,0
STARLINK-37352,2026-133S,2026-07-06T18:00:02.998944,15.49310413,.0001175,53.1599,224.6102,74.2762,279.4453,0,U,69524,999,506,-.84153E-4,-.5126E-4,0
STARLINK-37490,2026-133T,2026-07-06T18:00:02.998944,15.51835419,.0001183,53.1603,224.1470,75.0685,146.3067,0,U,69525,999,506,-.57975E-1,-.3107377E-1,0
STARLINK-37438,2026-133U,2026-07-06T18:00:02.998944,15.49310374,.0001139,53.1600,224.7675,55.1582,220.2409,0,U,69526,999,506,-.14087E-3,-.8275E-4,0
STARLINK-37484,2026-133V,2026-07-06T18:00:02.998944,15.53861911,.0001545,53.1602,224.0634,77.9339,184.4382,0,U,69527,999,506,-.43779E-1,-.2540213E-1,0
STARLINK-37523,2026-133W,2026-07-06T18:00:02.998944,15.49319617,.0001269,53.1598,224.5766,74.0120,295.0835,0,U,69528,999,506,-.49029E-4,-.3175E-4,0
STARLINK-37369,2026-133X,2026-07-06T18:00:02.998944,15.49285394,.000086,53.1596,224.5354,84.2651,304.5211,0,U,69529,999,506,.2857E-5,-.289E-5,0
STARLINK-37670,2026-133Y,2026-07-06T18:00:02.998944,15.49310782,.0000834,53.1601,224.7031,76.1347,229.0825,0,U,69530,999,506,-.1383E-3,-.8132E-4,0
STARLINK-37897,2026-133Z,2026-07-06T18:00:02.998944,15.52379600,.0001502,53.1608,224.0341,74.2187,200.1302,0,U,69531,999,501,-.40111E-1,-.2199209E-1,0
STARLINK-37933,2026-133AA,2026-07-06T18:00:02.998944,15.46950514,.0001369,53.1594,224.3713,94.6353,13.5101,0,U,69532,999,501,-.61436E-1,-.2751219E-1,0
STARLINK-37890,2026-133AB,2026-07-06T18:00:02.998944,15.45956627,.0001434,53.1595,224.2227,62.5201,117.6782,0,U,69533,999,501,-.57894E-1,-.2533427E-1,0
STARLINK-37407,2026-133AC,2026-07-06T18:00:02.998944,15.47568405,.0001576,53.1601,224.0852,70.4252,176.7995,0,U,69534,999,506,-.51302E-1,-.2392304E-1,0
STARLINK-37888,2026-133AD,2026-07-06T18:00:02.998944,15.44929748,.0001232,53.1597,224.1165,62.4982,168.4821,0,U,69535,999,501,-.58364E-1,-.2472527E-1,0
STARLINK-37889,2026-133AE,2026-07-06T18:00:02.998944,15.49333389,.0001052,53.1595,225.0106,80.1037,78.1802,0,U,69536,999,501,-.88155E-4,-.5352E-4,0
2026-134A,2026-134A,2026-07-06T19:30:08.240832,15.09407883,.0015435,97.6998,257.9931,199.9402,160.1225,0,U,69538,999,327,.30475E-3,.4819E-4,0
2026-134B,2026-134B,2026-07-06T16:16:00.097824,15.09564057,.0015501,97.6976,257.8564,202.8937,157.1602,0,U,69539,999,324,.30822E-3,.4896E-4,0
2026-134C,2026-134C,2026-07-06T19:26:15.263232,15.09597373,.0014932,97.6981,257.9915,203.5072,156.5476,0,U,69540,999,326,.30051E-3,.4775E-4,0
2026-134D,2026-134D,2026-07-06T16:14:10.698144,15.09653980,.001598,97.7021,257.8700,203.7151,156.3343,0,U,69541,999,324,.3045E-3,.4849E-4,0
2026-134E,2026-134E,2026-07-06T19:24:37.042848,15.09676862,.0015723,97.7039,258.0086,203.9002,156.1499,0,U,69542,999,326,.29591E-3,.4713E-4,0
2026-134F,2026-134F,2026-07-06T19:23:40.303968,15.09722543,.001497,97.6991,257.9966,205.5012,154.5479,0,U,69543,999,326,.28973E-3,.4617E-4,0
2026-134G,2026-134G,2026-07-06T16:11:04.050816,15.09807339,.0015453,97.7038,257.8770,206.8851,153.1578,0,U,69544,999,324,.32603E-3,.5218E-4,0
